GCOM-C (SHIKISAI)       
1 43065U 17082A   18021.79955507 -.00000044  00000-0  00000+0 0  9993
2 43065  98.6834  95.2727 0000761 122.4314 237.6896 14.27257721  4240
SLATS (TSUBAME)         
1 43066U 17082B   18022.20188292 -.00000093  00000-0  00000+0 0  9994
2 43066  98.3095  98.5940 0075351   6.6839 353.5416 15.18741341  4537
H-2A R/B                
1 43067U 17082C   18021.87400470  .00000863  00000-0  54669-4 0  9991
2 43067  98.3200  98.0448 0125382  15.6937 344.8112 15.05965522  4477
H-2A DEB                
1 43068U 17082D   18018.66846467  .00000822  00000-0  71773-4 0  9995
2 43068  98.0584  92.8681 0238030  43.4952 318.4768 14.80493846  3933
H-2A DEB                
1 43069U 17082E   18021.75436811  .00000270  00000-0  10383-3 0  9994
2 43069  98.5203  95.2312 0031351  38.5058 321.8350 14.37716701  4266
IRIDIUM 135             
1 43070U 17083A   18021.45593122  .00000087  00000-0  20247-4 0  9990
2 43070  86.4467 164.4489 0002310 123.2115 236.9307 14.42561342  4307
IRIDIUM 138             
1 43071U 17083B   18021.54824776  .00000079  00000-0  21044-4 0  9990
2 43071  86.3989 164.4196 0002041  88.6801 271.4629 14.34217992  4309
IRIDIUM 116             
1 43072U 17083C   18021.34904392  .00000118  00000-0  21479-4 0  9998
2 43072  86.5286 164.5157 0003368 106.6567 253.5011 14.56969061  4304
IRIDIUM 130             
1 43073U 17083D   18021.34528911  .00000062  00000-0  14922-4 0  9991
2 43073  86.4007 164.4899 0002130  90.9242 269.2198 14.34217544  4250
IRIDIUM 151             
1 43074U 17083E   18021.94783280  .00000064  00000-0  15730-4 0  9990
2 43074  86.4023 164.2491 0002912  91.1173 269.0357 14.34225066  4364
IRIDIUM 134             
1 43075U 17083F   18020.93927653  .00000067  00000-0  16709-4 0  9993
2 43075  86.4001 164.6376 0001660  96.6745 263.4640 14.34216161  4180
IRIDIUM 137             
1 43076U 17083G   18021.50851171  .00000118  00000-0  21371-4 0  9997
2 43076  86.5285 164.4391 0002571 102.8412 257.3084 14.56977426  4326
IRIDIUM 141             
1 43077U 17083H   18021.46653338  .00000099  00000-0  17202-4 0  9994
2 43077  86.5287 164.4544 0001645 106.2030 253.9360 14.56961285  4318
IRIDIUM 153             
1 43078U 17083J   18021.37320849  .00000231  00000-0  24436-4 0  9998
2 43078  85.5977 162.5601 0015635 144.4688 215.7579 14.83725047  4338
IRIDIUM 131             
1 43079U 17083K   18021.35163220  .00000072  00000-0  18700-4 0  9995
2 43079  86.4005 164.4819 0001935  89.6474 270.4943 14.34217693  4246
LKW-2                   
1 43080U 17084A   18022.18945564 -.00000071  00000-0  00000+0 0  9998
2 43080  97.4577 100.1882 0011567 153.4835 290.7042 15.23356160  4577
YAOGAN-30 G             
1 43081U 17085A   18021.78776679  .00000087  00000-0  11767-4 0  9997
2 43081  34.9946 204.5792 0005363 324.7470  35.2889 14.89462283  4035
YAOGAN-30 H             
1 43082U 17085B   18021.94416527  .00000113  00000-0  14401-4 0  9997
2 43082  34.9945 203.9576 0005151 190.7171 169.3424 14.89457228  4040
YAOGAN-30 J             
1 43083U 17085C   18021.96648653  .00000139  00000-0  17074-4 0  9994
2 43083  34.9950 204.1346 0005764 311.7824  48.2392 14.89459313  4052
CZ-2C R/B               
1 43084U 17085D   18021.61986978  .00000324  00000-0  21730-4 0  9992
2 43084  34.6684 201.2147 0102604 220.0654 139.2446 15.04018342  4046
ANGOSAT 1               
1 43087U 17086A   18021.54354815 -.00000244  00000-0  00000+0 0  9991
2 43087   0.1086 100.1129 0016696 103.5144  87.8835  0.99384132   243
FREGAT R/B              
1 43088U 17086B   18017.92186127 -.00000074  00000-0  00000-0 0  9990
2 43088   0.2137  18.5587 0105235  27.5316 314.7570  0.98388723   221
FREGAT DEB [TANK]       
1 43089U 17086C   18021.30659043  .00008428  33383-5  28235-3 0  9998
2 43089  50.4220 325.4766 2214517  56.3868 322.9195 10.99638527  2823
SL-23 R/B               
1 43090U 17086D   18022.11007485  .01600435  11549-4  28705-3 0  9995
2 43090  51.3624 251.2994 0133996 162.0579 198.5461 16.11460731  4189
SL-23 DEB               
1 43091U 17086E   18022.13229083  .01948054  10675-4  89336-3 0  9996
2 43091  51.4067 259.9152 0250899 171.5923 189.1779 15.78437597  4143
SL-23 DEB               
1 43092U 17086F   18022.20296932  .02113200  10615-4  11843-2 0  9991
2 43092  51.3422 258.8572 0248860 174.0489 186.3627 15.77007919  4121
SL-23 DEB               
1 43093U 17086G   18015.19062844  .05994943  11338-4  39649-3 0  9997
2 43093  51.3517 291.7517 0156537 141.8821 258.0086 16.10895563  3036
SL-23 DEB               
1 43094U 17086H   18015.17521219  .05303530  11370-4  53356-3 0  9995
2 43094  51.3368 291.8383 0151441 138.9059 171.5490 16.09978371  3138
CZ-2D DEB               
1 43095U 17084B   18021.18077508  .00001829  00000-0  78876-4 0  9999
2 43095  97.4560  99.1987 0011247 168.3131 191.8379 15.23792732  3894
CZ-2D DEB               
1 43096U 17084C   18021.15334905  .00002247  00000-0  91992-4 0  9993
2 43096  97.4811  99.3193 0017692 183.7679 176.3461 15.25245464  3889
CZ-2D DEB               
1 43097U 17084D   18021.16597662  .00004692  00000-0  13410-3 0  9990
2 43097  97.3542  99.3119 0054260 221.3907 138.3278 15.35016048  3916
SUPERVIEW-1 03          
1 43099U 18002A   18022.15954087  .00000208  00000-0  15864-4 0  9996
2 43099  97.5809  99.2391 0010280 230.0442 160.3561 15.12115497  1968
SUPERVIEW-1 04          
1 43100U 18002B   18021.82071008  .00000464  00000-0  28021-4 0  9998
2 43100  97.5811  98.9551 0014751 252.8956 217.1488 15.15558219  1917
CZ-2D R/B               
1 43101U 18002C   18021.81619742  .00001199  00000-0  71270-4 0  9991
2 43101  97.5841  98.9163 0014155 244.8485 115.1282 15.13163180  1912
CZ-2D DEB               
1 43102U 18002D   18021.98887500  .00000871  00000-0  59748-4 0  9991
2 43102  97.4708  98.8225 0018136  91.1380 269.1866 15.08407021  1931
CZ-2D DEB               
1 43103U 18002E   18021.16631158  .00000632  00000-0  50416-4 0  9996
2 43103  97.7145  98.2849 0038542 151.0071 209.3373 15.03385882  1802
CZ-2D DEB               
1 43104U 18002F   18021.66802208  .00001936  00000-0  82196-4 0  9996
2 43104  97.4484  98.7476 0052719 290.4480  69.1152 15.23090581  1900
CZ-2D DEB               
1 43105U 18002G   18021.95391774  .00001248  00000-0  59212-4 0  9999
2 43105  97.7024  99.3788 0047768 268.8855  90.6878 15.20325222  1948
BEIDOU-3 M3             
1 43107U 18003A   18021.34909422 -.00000045  00000-0  00000-0 0  9992
2 43107  55.0122  47.7394 0116120 177.0381 135.5975  1.82896657   203
BEIDOU-3 M4             
1 43108U 18003B   18021.34563359 -.00000045  00000-0  00000+0 0  9997
2 43108  55.0114  47.7392 0115044 177.4213 132.3536  1.82879723   208
YZ-1 R/B                
1 43109U 18003C   18015.50711251 -.00000051  00000-0  00000+0 0  9992
2 43109  55.0538  47.9925 0121402 341.7104  25.6972  1.78158180   102
CZ-3B R/B               
1 43110U 18003D   18021.66808620  .00013654  00000-0  52260-3 0  9996
2 43110  54.9816  42.7790 5816382 173.6144 199.6910  4.39330526   451
2018-004A               
1 43111U 18004A   18021.74442975  .00000547  00000-0  27860-4 0  9990
2 43111  97.5544  83.8919 0011206 217.7259 142.3192 15.21031406  1452
2018-004B               
1 43112U 18004B   18022.13694977  .00003172  00000-0  14448-3 0  9990
2 43112  97.5542  84.2911 0010284 221.9116 138.1333 15.21390524  1507
2018-004C               
1 43113U 18004C   18022.13546058  .00000318  00000-0  17332-4 0  9992
2 43113  97.5546  84.2917 0009507 221.7083 138.3429 15.21428118  1515
2018-004D               
1 43114U 18004D   18022.13476960  .00000700  00000-0  34084-4 0  9995
2 43114  97.5545  84.2940 0009209 228.2411 131.8038 15.21703030  1509
2018-004E               
1 43115U 18004E   18022.13441830  .00000482  00000-0  24420-4 0  9994
2 43115  97.5547  84.2949 0009141 229.8690 130.1745 15.21755116  1512
2018-004F               
1 43116U 18004F   18022.13335761  .00001203  00000-0  55947-4 0  9990
2 43116  97.5598  84.3072 0008744 233.5838 126.4592 15.21924293  1513
2018-004G               
1 43117U 18004G   18021.61216726  .00001745  00000-0  81173-4 0  9993
2 43117  97.4238  83.6231 0012273 215.8036 144.2378 15.21219872  1439
2018-004H               
1 43118U 18004H   18022.13296666  .00000821  00000-0  39137-4 0  9990
2 43118  97.5542  84.2958 0009345 241.5908 118.4386 15.21979272  1497
2018-004J               
1 43119U 18004J   18022.13291834  .00000876  00000-0  41538-4 0  9991
2 43119  97.5546  84.2965 0009287 240.9519 119.0787 15.21987917  1493
2018-004K               
1 43120U 18004K   18021.60693342  .00000963  00000-0  45334-4 0  9999
2 43120  97.5545  83.7680 0009139 242.8193 117.2112 15.21990668  1418
2018-004L               
1 43121U 18004L   18021.60688184  .00000941  00000-0  44341-4 0  9991
2 43121  97.5545  83.7680 0009147 242.9169 117.1134 15.21998773  1342
2018-004M               
1 43122U 18004M   18021.60662734  .00000902  00000-0  42589-4 0  9994
2 43122  97.5546  83.7687 0009085 243.8295 116.2007 15.22039880  1415
2018-004N               
1 43123U 18004N   18021.80364571  .00002160  00000-0  97448-4 0  9997
2 43123  97.5546  83.9673 0008981 243.6312 116.4002 15.22084020  1430
2018-004P               
1 43124U 18004P   18021.60640145  .00002028  00000-0  91687-4 0  9992
2 43124  97.5546  83.7689 0009017 244.8464 115.1837 15.22085898  1412
2018-004Q               
1 43125U 18004Q   18021.60612347  .00001997  00000-0  90244-4 0  9998
2 43125  97.5547  83.7694 0008937 245.7975 114.2327 15.22130646  1413
2018-004R               
1 43126U 18004R   18021.93459346  .00001979  00000-0  89368-4 0  9998
2 43126  97.5546  84.0999 0008843 245.1292 114.9025 15.22167056  1469
2018-004S               
1 43127U 18004S   18021.40848758  .00000995  00000-0  46442-4 0  9993
2 43127  97.5546  83.5721 0008627 247.3854 112.6470 15.22190254  1381
